GSAT0225 (GALILEO 29)   
1 59598U 24079A   26174.59374531 -.00000034  00000+0  00000+0 0  9991
2 59598  55.1233 100.9008 0001706 299.0990 258.4278  1.70474099 13424
GSAT0227 (GALILEO 30)   
1 59600U 24079C   26174.45530327 -.00000033  00000+0  00000+0 0  9996
2 59600  55.1185 100.9033 0002419  58.0764 301.9236  1.70473918 13478
GSAT0232 (GALILEO 32)   
1 61182U 24167A   26174.68416168  .00000046  00000+0  00000+0 0  9996
2 61182  55.1833 221.1353 0006244 229.3467 126.7036  1.70474403 10984
GSAT0226 (GALILEO 31)   
1 61183U 24167B   26175.16363493  .00000050  00000+0  00000+0 0  9998
2 61183  55.1820 221.1292 0002945 231.0291 150.6225  1.70474440 10978
BEIDOU-3 M25            
1 61186U 24168B   26174.99111059 -.00000109  00000+0  00000+0 0  9997
2 61186  54.4667 302.0055 0003080 299.6481 120.0107  1.86230274 11917
BEIDOU-3 M27            
1 61187U 24168C   26174.69963936 -.00000109  00000+0  00000+0 0  9994
2 61187  54.4622 301.9985 0001470  49.4418 309.8302  1.86230327  9371
NAVSTAR 83 (USA 440)    
1 62339U 24242A   26176.06978752 -.00000106  00000+0  00000+0 0  9999
2 62339  54.8458 333.8613 0017673   4.5649 176.3126  2.00571971 11413
QZS-6 (MICHIBIKI-6)     
1 62876U 25023A   26175.97253125 -.00000224  00000+0  00000+0 0  9993
2 62876   0.0585 280.1320 0001949 187.4168 246.1806  1.00273359  5027
COSMOS 2584 [GLONASS-K2]
1 63130U 25042A   26174.24058150 -.00000067  00000+0  00000+0 0  9993
2 63130  65.0880  72.5961 0006598 228.8314 131.1446  2.13103825 10172
NAVSTAR 84 (USA 545)    
1 64202U 25116A   26174.81582529 -.00000098  00000+0  00000+0 0  9995
2 64202  55.2396  30.8630 0008286 339.1810 199.1690  2.00575606  8009
COSMOS 2596 [GLONASS-K1]
1 65590U 25206B   26175.96646456 -.00000086  00000+0  00000+0 0  9990
2 65590  64.6296 314.7142 0011009 310.6805  49.5796  2.13100978  6081
GSAT0233 (GALILEO 33)   
1 67160U 25302A   26170.57978300 -.00000013  00000+0  00000+0 0  9990
2 67160  54.3370 102.0625 0000767 220.2514 324.6772  1.70473973  3168
GSAT0234 (GALILEO 34)   
1 67162U 25302C   26171.44712830 -.00000015  00000+0  00000+0 0  9995
2 67162  54.3393 102.0369 0002889 311.1148 226.2302  1.70474042  3232
NAVSTAR 85 (USA 581)    
1 67588U 26017A   26175.67571303 -.00000066  00000+0  00000+0 0  9994
2 67588  55.0929  88.4546 0021856 258.9107 100.8448  2.00571052431763
NAVSTAR 86 (USA 585)    
1 68791U 26087A   26173.65141046  .00000058  00000+0  00000+0 0  9991
2 68791  54.9627 207.5713 0020681 106.6591  76.9843  2.00570839   940
